{
    "links": {
        "self": "http://www.neowsapp.com/rest/v1/neo/3472373?api_key=iIulBulltgU6a56xZRHN4H3l9WmuAYTsLGpBGhQ2"
    },
    "id": "3472373",
    "neo_reference_id": "3472373",
    "name": "(2009 UW19)",
    "designation": "2009 UW19",
    "nasa_jpl_url": "http://ssd.jpl.nasa.gov/sbdb.cgi?sstr=3472373",
    "absolute_magnitude_h": 23.2,
    "estimated_diameter": {
        "kilometers": {
            "estimated_diameter_min": 0.0608912622,
            "estimated_diameter_max": 0.1361570015
        },
        "meters": {
            "estimated_diameter_min": 60.8912622106,
            "estimated_diameter_max": 136.1570015386
        },
        "miles": {
            "estimated_diameter_min": 0.0378360645,
            "estimated_diameter_max": 0.0846040122
        },
        "feet": {
            "estimated_diameter_min": 199.7744887109,
            "estimated_diameter_max": 446.7093369279
        }
    },
    "is_potentially_hazardous_asteroid": false,
    "close_approach_data": [
        {
            "close_approach_date": "2009-06-03",
            "close_approach_date_full": "2009-Jun-03 16:52",
            "epoch_date_close_approach": 1244047920000,
            "relative_velocity": {
                "kilometers_per_second": "13.1526421689",
                "kilometers_per_hour": "47349.5118080897",
                "miles_per_hour": "29421.1452676433"
            },
            "miss_distance": {
                "astronomical": "0.4319869876",
                "lunar": "168.0429381764",
                "kilometers": "64624333.212676412",
                "miles": "40155698.6138700056"
            },
            "orbiting_body": "Earth"
        },
        {
            "close_approach_date": "2009-10-20",
            "close_approach_date_full": "2009-Oct-20 05:50",
            "epoch_date_close_approach": 1256017800000,
            "relative_velocity": {
                "kilometers_per_second": "15.1682549981",
                "kilometers_per_hour": "54605.7179931143",
                "miles_per_hour": "33929.8696052215"
            },
            "miss_distance": {
                "astronomical": "0.1616360578",
                "lunar": "62.8764264842",
                "kilometers": "24180409.962076886",
                "miles": "15025010.0314615868"
            },
            "orbiting_body": "Earth"
        }
    ],
    "orbital_data": {
        "orbit_id": "8",
        "orbit_determination_date": "2017-04-06 08:59:25",
        "first_observation_date": "2009-10-24",
        "last_observation_date": "2009-10-29",
        "data_arc_in_days": 5,
        "observations_used": 28,
        "orbit_uncertainty": "9",
        "minimum_orbit_intersection": ".139456",
        "jupiter_tisserand_invariant": "4.068",
        "epoch_osculation": "2455130.5",
        "eccentricity": ".407340219743982",
        "semi_major_axis": "1.656046614147584",
        "inclination": "25.97860288753592",
        "ascending_node_longitude": "37.82552943494088",
        "orbital_period": "778.4079494342086",
        "perihelion_distance": ".9814722224344297",
        "perihelion_argument": "296.9669612371348",
        "aphelion_distance": "2.330621005860738",
        "perihelion_time": "2455073.933558847228",
        "mean_anomaly": "26.16098516182881",
        "mean_motion": ".4624824300184352",
        "equinox": "J2000",
        "orbit_class": {
            "orbit_class_type": "APO",
            "orbit_class_description": "Near-Earth asteroid orbits which cross the Earth’s orbit similar to that of 1862 Apollo",
            "orbit_class_range": "a (semi-major axis) > 1.0 AU; q (perihelion) < 1.017 AU"
        }
    },
    "is_sentry_object": false
}